[
    {
        "Altitude(m)": 570205.4626500197,
        "Argument of Periapsis(deg)": -0.022603160782972403,
        "Eccentricity": 0.0,
        "Inclination(deg)": 97.0,
        "Latitude(deg)": -17.096752308029135,
        "Longitude(deg)": 75.50265718298779,
        "Mean Anomaly(deg)": 197.0314432691875,
        "RAAN(deg)": 0.005947053618510769,
        "Satellite Name": "Starlink Shell 3 1610",
        "Satellite Number": 1610,
        "Semi-Major Axis(m)": 6938478.169268562,
        "Time(s)": 570
    },
    {
        "Altitude(m)": 570395.1227429194,
        "Argument of Periapsis(deg)": -0.02299970746337543,
        "Eccentricity": 0.0,
        "Inclination(deg)": 97.0,
        "Latitude(deg)": -17.719573489206674,
        "Longitude(deg)": 75.3773867094592,
        "Mean Anomaly(deg)": 197.65691946689253,
        "RAAN(deg)": 0.00605138789251973,
        "Satellite Name": "Starlink Shell 3 1610",
        "Satellite Number": 1610,
        "Semi-Major Axis(m)": 6938478.169268562,
        "Time(s)": 580
    },
    {
        "Altitude(m)": 570587.990234448,
        "Argument of Periapsis(deg)": -0.023396254143778456,
        "Eccentricity": 0.0,
        "Inclination(deg)": 97.0,
        "Latitude(deg)": -18.342295109526226,
        "Longitude(deg)": 75.2515423366107,
        "Mean Anomaly(deg)": 198.2823956645976,
        "RAAN(deg)": 0.0061557221665286925,
        "Satellite Name": "Starlink Shell 3 1610",
        "Satellite Number": 1610,
        "Semi-Major Axis(m)": 6938478.169268562,
        "Time(s)": 590
    },
    {
        "Altitude(m)": 570783.9999111218,
        "Argument of Periapsis(deg)": -0.023792800824181483,
        "Eccentricity": 0.0,
        "Inclination(deg)": 97.0,
        "Latitude(deg)": -18.964914127365855,
        "Longitude(deg)": 75.1250981025872,
        "Mean Anomaly(deg)": 198.90787186230264,
        "RAAN(deg)": 0.0062600564405376515,
        "Satellite Name": "Starlink Shell 3 1610",
        "Satellite Number": 1610,
        "Semi-Major Axis(m)": 6938478.169268562,
        "Time(s)": 600
    },
    {
        "Altitude(m)": 570983.084964658,
        "Argument of Periapsis(deg)": -0.024189347504584503,
        "Eccentricity": 0.0,
        "Inclination(deg)": 97.0,
        "Latitude(deg)": -19.58742748901184,
        "Longitude(deg)": 74.99802740030137,
        "Mean Anomaly(deg)": 199.53334806000768,
        "RAAN(deg)": 0.006364390714546612,
        "Satellite Name": "Starlink Shell 3 1610",
        "Satellite Number": 1610,
        "Semi-Major Axis(m)": 6938478.169268562,
        "Time(s)": 610
    },
    {
        "Altitude(m)": 571185.1770221998,
        "Argument of Periapsis(deg)": -0.02458589418498753,
        "Eccentricity": 0.0,
        "Inclination(deg)": 97.0,
        "Latitude(deg)": -20.209832127184423,
        "Longitude(deg)": 74.87030344645795,
        "Mean Anomaly(deg)": 200.15882425771272,
        "RAAN(deg)": 0.0064687249885555746,
        "Satellite Name": "Starlink Shell 3 1610",
        "Satellite Number": 1610,
        "Semi-Major Axis(m)": 6938478.169268562,
        "Time(s)": 620
    },
    {
        "Altitude(m)": 571390.206177317,
        "Argument of Periapsis(deg)": -0.024982440865390556,
        "Eccentricity": 0.0,
        "Inclination(deg)": 97.0,
        "Latitude(deg)": -20.83212495944897,
        "Longitude(deg)": 74.74189806798071,
        "Mean Anomaly(deg)": 200.78430045541776,
        "RAAN(deg)": 0.006573059262564535,
        "Satellite Name": "Starlink Shell 3 1610",
        "Satellite Number": 1610,
        "Semi-Major Axis(m)": 6938478.169268562,
        "Time(s)": 630
    },
    {
        "Altitude(m)": 571598.1010217678,
        "Argument of Periapsis(deg)": -0.025378987545793576,
        "Eccentricity": 0.0,
        "Inclination(deg)": 97.0,
        "Latitude(deg)": -21.4543028865011,
        "Longitude(deg)": 74.61278300815479,
        "Mean Anomaly(deg)": 201.40977665312278,
        "RAAN(deg)": 0.006677393536573496,
        "Satellite Name": "Starlink Shell 3 1610",
        "Satellite Number": 1610,
        "Semi-Major Axis(m)": 6938478.169268562,
        "Time(s)": 640
    },
    {
        "Altitude(m)": 571808.7886779543,
        "Argument of Periapsis(deg)": -0.025775534226196602,
        "Eccentricity": 0.0,
        "Inclination(deg)": 97.0,
        "Latitude(deg)": -22.07636279032275,
        "Longitude(deg)": 74.48292870945824,
        "Mean Anomaly(deg)": 202.03525285082782,
        "RAAN(deg)": 0.006781727810582457,
        "Satellite Name": "Starlink Shell 3 1610",
        "Satellite Number": 1610,
        "Semi-Major Axis(m)": 6938478.169268562,
        "Time(s)": 650
    },
    {
        "Altitude(m)": 572022.194832111,
        "Argument of Periapsis(deg)": -0.026172080906599626,
        "Eccentricity": 0.0,
        "Inclination(deg)": 97.0,
        "Latitude(deg)": -22.69830153219701,
        "Longitude(deg)": 74.35230477538148,
        "Mean Anomaly(deg)": 202.6607290485329,
        "RAAN(deg)": 0.006886062084591417,
        "Satellite Name": "Starlink Shell 3 1610",
        "Satellite Number": 1610,
        "Semi-Major Axis(m)": 6938478.169268562,
        "Time(s)": 660
    },
    {
        "Altitude(m)": 572238.2437681747,
        "Argument of Periapsis(deg)": -0.026568627587002652,
        "Eccentricity": 0.0,
        "Inclination(deg)": 97.0,
        "Latitude(deg)": -23.320115950575158,
        "Longitude(deg)": 74.22088043012965,
        "Mean Anomaly(deg)": 203.28620524623793,
        "RAAN(deg)": 0.006990396358600378,
        "Satellite Name": "Starlink Shell 3 1610",
        "Satellite Number": 1610,
        "Semi-Major Axis(m)": 6938478.169268562,
        "Time(s)": 670
    },
    {
        "Altitude(m)": 572456.8584023115,
        "Argument of Periapsis(deg)": -0.02696517426740568,
        "Eccentricity": 0.0,
        "Inclination(deg)": 97.0,
        "Latitude(deg)": -23.941802858787007,
        "Longitude(deg)": 74.0886234631924,
        "Mean Anomaly(deg)": 203.91168144394297,
        "RAAN(deg)": 0.00709473063260934,
        "Satellite Name": "Starlink Shell 3 1610",
        "Satellite Number": 1610,
        "Semi-Major Axis(m)": 6938478.169268562,
        "Time(s)": 680
    },
    {
        "Altitude(m)": 572677.9603181023,
        "Argument of Periapsis(deg)": -0.0273617209478087,
        "Eccentricity": 0.0,
        "Inclination(deg)": 97.0,
        "Latitude(deg)": -24.563359042582555,
        "Longitude(deg)": 73.9555006843713,
        "Mean Anomaly(deg)": 204.537157641648,
        "RAAN(deg)": 0.007199064906618299,
        "Satellite Name": "Starlink Shell 3 1610",
        "Satellite Number": 1610,
        "Semi-Major Axis(m)": 6938478.169268562,
        "Time(s)": 690
    },
    {
        "Altitude(m)": 572901.4698023706,
        "Argument of Periapsis(deg)": -0.027758267628211725,
        "Eccentricity": 0.0,
        "Inclination(deg)": 97.0,
        "Latitude(deg)": -25.184781257495622,
        "Longitude(deg)": 73.82147837622696,
        "Mean Anomaly(deg)": 205.16263383935305,
        "RAAN(deg)": 0.00730339918062726,
        "Satellite Name": "Starlink Shell 3 1610",
        "Satellite Number": 1610,
        "Semi-Major Axis(m)": 6938478.169268562,
        "Time(s)": 700
    },
    {
        "Altitude(m)": 573127.3058816137,
        "Argument of Periapsis(deg)": -0.028154814308614752,
        "Eccentricity": 0.0,
        "Inclination(deg)": 97.0,
        "Latitude(deg)": -25.806066226018714,
        "Longitude(deg)": 73.6865212308963,
        "Mean Anomaly(deg)": 205.7881100370581,
        "RAAN(deg)": 0.0074077334546362224,
        "Satellite Name": "Starlink Shell 3 1610",
        "Satellite Number": 1610,
        "Semi-Major Axis(m)": 6938478.169268562,
        "Time(s)": 710
    },
    {
        "Altitude(m)": 573355.3863589988,
        "Argument of Periapsis(deg)": -0.02855136098901778,
        "Eccentricity": 0.0,
        "Inclination(deg)": 97.0,
        "Latitude(deg)": -26.427210634575257,
        "Longitude(deg)": 73.55059279683442,
        "Mean Anomaly(deg)": 206.4135862347631,
        "RAAN(deg)": 0.007512067728645183,
        "Satellite Name": "Starlink Shell 3 1610",
        "Satellite Number": 1610,
        "Semi-Major Axis(m)": 6938478.169268562,
        "Time(s)": 720
    },
    {
        "Altitude(m)": 573585.6278519755,
        "Argument of Periapsis(deg)": -0.028947907669420805,
        "Eccentricity": 0.0,
        "Inclination(deg)": 97.0,
        "Latitude(deg)": -27.04821113027651,
        "Longitude(deg)": 73.41365592240258,
        "Mean Anomaly(deg)": 207.03906243246814,
        "RAAN(deg)": 0.007616402002654144,
        "Satellite Name": "Starlink Shell 3 1610",
        "Satellite Number": 1610,
        "Semi-Major Axis(m)": 6938478.169268562,
        "Time(s)": 730
    },
    {
        "Altitude(m)": 573817.9458304134,
        "Argument of Periapsis(deg)": -0.029344454349823825,
        "Eccentricity": 0.0,
        "Inclination(deg)": 97.0,
        "Latitude(deg)": -27.669064317450886,
        "Longitude(deg)": 73.27567168321113,
        "Mean Anomaly(deg)": 207.6645386301732,
        "RAAN(deg)": 0.0077207362766631045,
        "Satellite Name": "Starlink Shell 3 1610",
        "Satellite Number": 1610,
        "Semi-Major Axis(m)": 6938478.169268562,
        "Time(s)": 740
    },
    {
        "Altitude(m)": 574052.254655264,
        "Argument of Periapsis(deg)": -0.029741001030226845,
        "Eccentricity": 0.0,
        "Inclination(deg)": 97.0,
        "Latitude(deg)": -28.289766753927534,
        "Longitude(deg)": 73.13659981872352,
        "Mean Anomaly(deg)": 208.29001482787825,
        "RAAN(deg)": 0.007825070550672067,
        "Satellite Name": "Starlink Shell 3 1610",
        "Satellite Number": 1610,
        "Semi-Major Axis(m)": 6938478.169268562,
        "Time(s)": 750
    }
]